0 JASON
1 26997U 01055A   07188.68223356 -.00000038  00000-0  10000-3 0  9999
2 26997 066.0431 106.3803 0007802 271.5257 088.4877 12.80930012261032
0 JASON
1 26997U 01055A   07189.38491675 -.00000038 +00000-0 +10000-3 0  9998
2 26997 066.0426 104.9206 0007820 271.5223 088.4885 12.80929944261121
0 JASON
1 26997U 01055A   07190.47798020 -.00000038 +00000-0 +10000-3 0  9994
2 26997 066.0420 102.6499 0007811 271.3019 088.7105 12.80930020261265
0 JASON
1 26997U 01055A   07191.41489137 -.00000038 +00000-0 +10000-3 0  9995
2 26997 066.0418 100.7039 0007819 271.2527 088.7587 12.80930007261384
0 JASON
1 26997U 01055A   07192.35180273 -.00000038 +00000-0 +10000-3 0  9998
2 26997 066.0418 098.7580 0007837 271.2672 088.7425 12.80929910261508
0 JASON
1 26997U 01055A   07193.44486637 -.00000038  00000-0  10000-3 0  9992
2 26997 066.0417 096.4881 0007827 271.0614 088.9490 12.80929890261645
0 JASON
1 26997U 01055A   07194.38177802 -.00000038 +00000-0 +10000-3 0  9997
2 26997 066.0417 094.5424 0007844 271.0301 088.9807 12.80929881261764
0 JASON
1 26997U 01055A   07195.39676548 -.00000038 +00000-0 +10000-3 0  9990
2 26997 066.0418 092.4347 0007849 270.7844 089.2257 12.80929856261898
0 JASON
1 26997U 01055A   07196.56790537 -.00000038 +00000-0 +10000-3 0  9995
2 26997 066.0422 090.0021 0007790 270.5797 089.4326 12.80929844262040
0 JASON
1 26997U 01055A   07197.42674080 -.00000038 +00000-0 +10000-3 0  9995
2 26997 066.0424 088.2187 0007782 270.3272 089.6846 12.80929860262150
0 JASON
1 26997U 01055A   07198.36365230 -.00000038  00000-0  10000-3 0  9993
2 26997 066.0424 086.2734 0007782 269.9034 090.1089 12.80929903262273
0 JASON
1 26997U 01055A   07199.37863960 -.00000038 +00000-0 +10000-3 0  9998
2 26997 066.0431 084.1649 0007807 269.6538 090.3601 12.80930060262400
0 JASON
1 26997U 01055A   07200.54977840 -.00000038 +00000-0 +10000-3 0  9993
2 26997 066.0430 081.7327 0007782 269.3326 090.6812 12.80930176262550
0 JASON
1 26997U 01055A   07201.40861333 -.00000038 +00000-0 +10000-3 0  9998
2 26997 066.0431 079.9480 0007766 268.9809 091.0330 12.80930320262666
0 JASON
1 26997U 01055A   07202.34552410 -.00000038 +00000-0 +10000-3 0  9995
2 26997 066.0430 078.0019 0007747 269.1012 090.9113 12.80930380262787
0 JASON
1 26997U 01055A   07202.97013151 -.00000038  00000-0  10000-3 0  9998
2 26997 066.0429 076.7046 0007755 269.1524 090.8594 12.80930353262868
0 JASON
1 26997U 01055A   07203.59473907 -.00000038 +00000-0 +10000-3 0  9996
2 26997 066.0428 075.4072 0007751 269.0308 090.9832 12.80930453262943
0 JASON
1 26997U 01055A   07204.45357384 -.00000038 +00000-0 +10000-3 0  9992
2 26997 066.0430 073.6237 0007684 269.1382 090.8743 12.80930546263053
0 JASON
1 26997U 01055A   07205.62471290 -.00000038 +00000-0 +10000-3 0  9995
2 26997 066.0429 071.1914 0007656 269.1165 090.8970 12.80930565263204
0 JASON
1 26997U 01055A   07206.95200374 -.00000038 +00000-0 +10000-3 0  9995
2 26997 066.0427 068.4347 0007652 268.7982 091.2142 12.80930420263373
0 JASON
1 26997U 01055A   07207.49853545 -.00000038  00000-0  10000-3 0  9999
2 26997 066.0425 067.2995 0007630 268.6205 091.3946 12.80930506263446
0 JASON
1 26997U 01055A   07208.35737025 -.00000038 +00000-0 +10000-3 0  9999
2 26997 066.0424 065.5160 0007624 268.1535 091.8598 12.80930478263552
0 JASON
1 26997U 01055A   07209.60658540 -.00000038 +00000-0 +10000-3 0  9992
2 26997 066.0428 062.9221 0007612 267.8937 092.1202 12.80930442263719
0 JASON
1 26997U 01055A   07210.93387594 -.00000038 +00000-0 +10000-3 0  9998
2 26997 066.0427 060.1649 0007612 267.4441 092.5701 12.80930474263889
0 JASON
1 26997U 01055A   07211.48040737 -.00000038 +00000-0 +10000-3 0  9994
2 26997 066.0424 059.0297 0007607 267.6582 092.3567 12.80930551263956
0 JASON
1 26997U 01055A   07212.41731815 -.00000038  00000-0  10000-3 0  9992
2 26997 066.0422 057.0836 0007570 267.9939 092.0191 12.80930549264070
0 JASON
1 26997U 01055A   07213.58845734 -.00000038 +00000-0 +10000-3 0  9997
2 26997 066.0424 054.6506 0007540 268.4446 091.5710 12.80930614264226
0 JASON
1 26997U 01055A   07214.36921628 -.00000038 +00000-0 +10000-3 0  9991
2 26997 066.0422 053.0289 0007544 268.2780 091.7381 12.80930722264325
0 JASON
1 26997U 01055A   07215.54035460 -.00000038 +00000-0 +10000-3 0  9992
2 26997 066.0420 050.5959 0007545 268.2398 091.7755 12.80930752264479
0 JASON
1 26997U 01055A   07216.39918938 -.00000038 +00000-0 +10000-3 0  9996
2 26997 066.0419 048.8117 0007554 268.0879 091.9268 12.80930760264587
0 JASON
1 26997U 01055A   07216.94572069 -.00000038  00000-0  10000-3 0  9998
2 26997 066.0420 047.6763 0007541 268.5714 091.4433 12.80930821264657
0 JASON
1 26997U 01055A   07217.64840380 -.00000038 +00000-0 +10000-3 0  9990
2 26997 066.0421 046.2165 0007528 268.4289 091.5860 12.80930838264743
0 JASON
1 26997U 01055A   07218.35108690 -.00000038 +00000-0 +10000-3 0  9990
2 26997 066.0421 044.7575 0007528 268.1111 091.9042 12.80930871264835
0 JASON
1 26997U 01055A   07219.60030148 -.00000038 +00000-0 +10000-3 0  9991
2 26997 066.0425 042.1626 0007525 267.9852 092.0302 12.80930833264990
0 JASON
1 26997U 01055A   07220.38106038 -.00000038 +00000-0 +10000-3 0  9990
2 26997 066.0425 040.5415 0007525 267.6320 092.3833 12.80930869265098
0 JASON
1 26997U 01055A   07221.47412280 -.00000038  00000-0  10000-3 0  9990
2 26997 066.0425 038.2720 0007525 267.1376 092.8778 12.80930919265232
0 JASON
1 26997U 01055A   07222.41103342 -.00000038 +00000-0 +10000-3 0  9991
2 26997 066.0432 036.3254 0007583 266.9615 093.0526 12.80930888265350
0 JASON
1 26997U 01055A   07223.42602011 -.00000038 +00000-0 +10000-3 0  9990
2 26997 066.0432 034.2171 0007589 266.6314 093.3838 12.80930937265482
0 JASON
1 26997U 01055A   07224.44100651 -.00000038 +00000-0 +10000-3 0  9996
2 26997 066.0433 032.1090 0007603 266.3324 093.6828 12.80931030265617
0 JASON
1 26997U 01055A   07225.45599283 -.00000038 +00000-0 +10000-3 0  9991
2 26997 066.0432 030.0007 0007611 266.1174 093.8963 12.80931022265748
0 JASON
1 26997U 01055A   07226.39290356 -.00000038  00000-0  10000-3 0  9994
2 26997 066.0431 028.0548 0007648 265.8235 094.1908 12.80931014265865
0 JASON
1 26997U 01055A   07227.56404131 -.00000038 +00000-0 +10000-3 0  9992
2 26997 066.0433 025.6215 0007666 265.9593 094.0550 12.80931229266017
0 JASON
1 26997U 01055A   07228.42287578 -.00000038 +00000-0 +10000-3 0  9992
2 26997 066.0434 023.8375 0007676 266.0324 093.9804 12.80931228266121
0 JASON
1 26997U 01055A   07229.59401481 -.00000038 +00000-0 +10000-3 0  9992
2 26997 066.0439 021.4053 0007625 265.7548 094.2596 12.80931127266277
0 JASON
1 26997U 01055A   07230.37477357 -.00000038 +00000-0 +10000-3 0  9995
2 26997 066.0442 019.7836 0007683 265.2544 094.7615 12.80931225266372
0 JASON
1 26997U 01055A   07230.99938010 -.00000038  00000-0  10000-3 0  9991
2 26997 066.0445 018.4863 0007645 265.2721 094.7401 12.80931171266458
0 JASON
1 26997U 01055A   07231.54591167 -.00000038 +00000-0 +10000-3 0  9991
2 26997 066.0449 017.3513 0007627 264.9361 095.0769 12.80931135266527
0 JASON
1 26997U 01055A   07232.48282253 -.00000038 +00000-0 +10000-3 0  9998
2 26997 066.0452 015.4052 0007623 264.7300 095.2823 12.80931021266645
0 JASON
1 26997U 01055A   07233.41973364 -.00000038 +00000-0 +10000-3 0  9992
2 26997 066.0454 013.4602 0007593 265.1238 094.8868 12.80930871266766
0 JASON
1 26997U 01055A   07234.43472121 -.00000038 +00000-0 +10000-3 0  9990
2 26997 066.0457 011.3532 0007535 265.2108 094.7992 12.80930705266898
0 JASON
1 26997U 01055A   07235.84008967 -.00000038  00000-0  10000-3 0  9999
2 26997 066.0458 008.4347 0007611 265.0381 094.9701 12.80930024267071
0 JASON
1 26997U 01055A   07236.46469866 -.00000038 +00000-0 +10000-3 0  9997
2 26997 066.0457 007.1374 0007527 265.3184 094.6928 12.80929814267158
0 JASON
1 26997U 01055A   07237.47968710 -.00000038 +00000-0 +10000-3 0  9991
2 26997 066.0460 005.0291 0007550 265.6279 094.3838 12.80929602267287
0 JASON
1 26997U 01055A   07238.41659956 -.00000038 +00000-0 +10000-3 0  9995
2 26997 066.0459 003.0833 0007568 265.7045 094.3062 12.80929301267405
0 JASON
1 26997U 01055A   07239.43158842 -.00000038 +00000-0 +10000-3 0  9996
2 26997 066.0456 000.9746 0007605 265.9761 094.0372 12.80929192267533
0 JASON
1 26997U 01055A   07240.44657643 -.00000038 +00000-0 +10000-3 0  9992
2 26997 066.0457 358.8663 0007653 265.9137 094.1002 12.80929263267661
0 JASON
1 26997U 01055A   07240.44657669 -.00000038  00000-0  10000-3 0  9990
2 26997 066.0455 358.8661 0007646 266.2865 093.7284 12.80929296267664
0 JASON
1 26997U 01055A   07241.61771640 -.00000038 +00000-0 +10000-3 0  9996
2 26997 066.0463 356.4338 0007702 265.6367 094.3754 12.80929156267812
0 JASON
1 26997U 01055A   07242.39847675 -.00000038 +00000-0 +10000-3 0  9994
2 26997 066.0459 354.8125 0007723 265.5466 094.4675 12.80929222267913
0 JASON
1 26997U 01055A   07243.49154055 -.00000038 +00000-0 +10000-3 0  9999
2 26997 066.0455 352.5423 0007778 265.3706 094.6423 12.80929233268051
0 JASON
1 26997U 01055A   07244.42845245 -.00000038  00000-0  10000-3 0  9991
2 26997 066.0453 350.5969 0007752 265.8068 094.2048 12.80929265268177
0 JASON
1 26997U 01055A   07245.44344064 -.00000038 +00000-0 +10000-3 0  9997
2 26997 066.0455 348.4890 0007791 264.8488 095.1643 12.80929222268305
0 JASON
1 26997U 01055A   07246.38035252 -.00000038 +00000-0 +10000-3 0  9997
2 26997 066.0456 346.5432 0007766 265.1086 094.9045 12.80929308268428
0 JASON
1 26997U 01055A   07247.55149189 -.00000038 +00000-0 +10000-3 0  9992
2 26997 066.0457 344.1109 0007811 265.2701 094.7420 12.80929520268577
0 JASON
1 26997U 01055A   07248.41032772 -.00000038 +00000-0 +10000-3 0  9997
2 26997 066.0458 342.3276 0007850 265.4372 094.5744 12.80929543268686
0 JASON
1 26997U 01055A   07248.95685962 -.00000038  00000-0  10000-3 0  9991
2 26997 066.0457 341.1923 0007843 265.2451 094.7676 12.80929602268759
0 JASON
1 26997U 01055A   07249.58146726 -.00000038 +00000-0 +10000-3 0  9991
2 26997 066.0462 339.8958 0007836 265.2794 094.7322 12.80929676268837
